{
  "type": "FeatureCollection",
  "features": [
    {
      "type": "Feature",
      "properties": {
        "norad_id": 66563,
        "name": "STARLINK-35437",
        "group": "last-30-days",
        "lat": 41.953464860887706,
        "lon": -169.72048021390825,
        "alt_km": 409.750417425209,
        "timestamp": "2025-12-13T16:48:31.465207+00:00",
        "meta_object_name": "STARLINK-35437",
        "meta_object_id": "2025-268G",
        "meta_epoch": "2025-12-12T20:00:01.999872",
        "meta_mean_motion": 15.50638402,
        "meta_eccentricity": 0.00014723,
        "meta_inclination": 43,
        "meta_ra_of_asc_node": 120.6253,
        "meta_arg_of_pericenter": 274.3183,
        "meta_mean_anomaly": 359.0228,
        "meta_ephemeris_type": 0,
        "meta_classification_type": "U",
        "meta_norad_cat_id": 66563,
        "meta_element_set_no": 999,
        "meta_rev_at_epoch": 468,
        "meta_bstar": -0.0020518534,
        "meta_mean_motion_dot": -0.00119152,
        "meta_mean_motion_ddot": 0,
        "tle_line1": "1 66563U 25268G   25346.83335648 -.00119152  00000+0 -20519-2 0  9998",
        "tle_line2": "2 66563  43.0000 120.6253 0001472 274.3183 359.0228 15.50638402  4687"
      },
      "geometry": {
        "type": "Point",
        "coordinates": [
          -169.72048021390825,
          41.953464860887706
        ]
      }
    },
    {
      "type": "Feature",
      "properties": {
        "norad_id": 66564,
        "name": "STARLINK-35358",
        "group": "last-30-days",
        "lat": 42.27918843150313,
        "lon": -167.09150207896326,
        "alt_km": 409.39248211441463,
        "timestamp": "2025-12-13T16:48:31.465217+00:00",
        "meta_object_name": "STARLINK-35358",
        "meta_object_id": "2025-268H",
        "meta_epoch": "2025-12-12T20:00:01.999872",
        "meta_mean_motion": 15.50592738,
        "meta_eccentricity": 0.00014175,
        "meta_inclination": 43.0001,
        "meta_ra_of_asc_node": 120.6211,
        "meta_arg_of_pericenter": 284.4652,
        "meta_mean_anomaly": 350.8153,
        "meta_ephemeris_type": 0,
        "meta_classification_type": "U",
        "meta_norad_cat_id": 66564,
        "meta_element_set_no": 999,
        "meta_rev_at_epoch": 463,
        "meta_bstar": -0.00092471057,
        "meta_mean_motion_dot": -0.00054242,
        "meta_mean_motion_ddot": 0,
        "tle_line1": "1 66564U 25268H   25346.83335648 -.00054242  00000+0 -92471-3 0  9994",
        "tle_line2": "2 66564  43.0001 120.6211 0001417 284.4652 350.8153 15.50592738  4637"
      },
      "geometry": {
        "type": "Point",
        "coordinates": [
          -167.09150207896326,
          42.27918843150313
        ]
      }
    },
    {
      "type": "Feature",
      "properties": {
        "norad_id": 66565,
        "name": "STARLINK-35893",
        "group": "last-30-days",
        "lat": 42.53360330965106,
        "lon": -164.55749878559794,
        "alt_km": 409.59911532779824,
        "timestamp": "2025-12-13T16:48:31.465227+00:00",
        "meta_object_name": "STARLINK-35893",
        "meta_object_id": "2025-268J",
        "meta_epoch": "2025-12-12T20:00:01.999872",
        "meta_mean_motion": 15.50613843,
        "meta_eccentricity": 0.00014755,
        "meta_inclination": 43.0002,
        "meta_ra_of_asc_node": 120.6159,
        "meta_arg_of_pericenter": 266.7793,
        "meta_mean_anomaly": 10.4098,
        "meta_ephemeris_type": 0,
        "meta_classification_type": "U",
        "meta_norad_cat_id": 66565,
        "meta_element_set_no": 999,
        "meta_rev_at_epoch": 468,
        "meta_bstar": -0.0014285058,
        "meta_mean_motion_dot": -0.00083362,
        "meta_mean_motion_ddot": 0,
        "tle_line1": "1 66565U 25268J   25346.83335648 -.00083362  00000+0 -14285-2 0  9996",
        "tle_line2": "2 66565  43.0002 120.6159 0001475 266.7793  10.4098 15.50613843  4686"
      },
      "geometry": {
        "type": "Point",
        "coordinates": [
          -164.55749878559794,
          42.53360330965106
        ]
      }
    },
    {
      "type": "Feature",
      "properties": {
        "norad_id": 66566,
        "name": "STARLINK-35871",
        "group": "last-30-days",
        "lat": 42.73246072714873,
        "lon": -161.98786114692598,
        "alt_km": 409.5253729510887,
        "timestamp": "2025-12-13T16:48:31.465237+00:00",
        "meta_object_name": "STARLINK-35871",
        "meta_object_id": "2025-268K",
        "meta_epoch": "2025-12-12T20:00:01.999872",
        "meta_mean_motion": 15.50622558,
        "meta_eccentricity": 0.00014394,
        "meta_inclination": 43.0001,
        "meta_ra_of_asc_node": 120.6109,
        "meta_arg_of_pericenter": 283.3158,
        "meta_mean_anomaly": 355.7867,
        "meta_ephemeris_type": 0,
        "meta_classification_type": "U",
        "meta_norad_cat_id": 66566,
        "meta_element_set_no": 999,
        "meta_rev_at_epoch": 468,
        "meta_bstar": -0.0016987358,
        "meta_mean_motion_dot": -0.00098902,
        "meta_mean_motion_ddot": 0,
        "tle_line1": "1 66566U 25268K   25346.83335648 -.00098902  00000+0 -16987-2 0  9994",
        "tle_line2": "2 66566  43.0001 120.6109 0001439 283.3158 355.7867 15.50622558  4683"
      },
      "geometry": {
        "type": "Point",
        "coordinates": [
          -161.98786114692598,
          42.73246072714873
        ]
      }
    },
    {
      "type": "Feature",
      "properties": {
        "norad_id": 66567,
        "name": "STARLINK-35825",
        "group": "last-30-days",
        "lat": 42.87332140723117,
        "lon": -159.40607530213646,
        "alt_km": 409.5091896397462,
        "timestamp": "2025-12-13T16:48:31.465247+00:00",
        "meta_object_name": "STARLINK-35825",
        "meta_object_id": "2025-268L",
        "meta_epoch": "2025-12-12T20:00:01.999872",
        "meta_mean_motion": 15.50634079,
        "meta_eccentricity": 0.00012563,
        "meta_inclination": 43.0001,
        "meta_ra_of_asc_node": 120.6062,
        "meta_arg_of_pericenter": 267.3158,
        "meta_mean_anomaly": 13.6962,
        "meta_ephemeris_type": 0,
        "meta_classification_type": "U",
        "meta_norad_cat_id": 66567,
        "meta_element_set_no": 999,
        "meta_rev_at_epoch": 468,
        "meta_bstar": -0.0019503014,
        "meta_mean_motion_dot": -0.00113335,
        "meta_mean_motion_ddot": 0,
        "tle_line1": "1 66567U 25268L   25346.83335648 -.00113335  00000+0 -19503-2 0  9990",
        "tle_line2": "2 66567  43.0001 120.6062 0001256 267.3158  13.6962 15.50634079  4688"
      },
      "geometry": {
        "type": "Point",
        "coordinates": [
          -159.40607530213646,
          42.87332140723117
        ]
      }
    },
    {
      "type": "Feature",
      "properties": {
        "norad_id": 66568,
        "name": "STARLINK-35803",
        "group": "last-30-days",
        "lat": 42.95616642327647,
        "lon": -156.7938736558719,
        "alt_km": 409.7155731461762,
        "timestamp": "2025-12-13T16:48:31.465257+00:00",
        "meta_object_name": "STARLINK-35803",
        "meta_object_id": "2025-268M",
        "meta_epoch": "2025-12-12T20:00:01.999872",
        "meta_mean_motion": 15.50644849,
        "meta_eccentricity": 0.0001643,
        "meta_inclination": 43.0001,
        "meta_ra_of_asc_node": 120.6013,
        "meta_arg_of_pericenter": 282.7103,
        "meta_mean_anomaly": 0.2057,
        "meta_ephemeris_type": 0,
        "meta_classification_type": "U",
        "meta_norad_cat_id": 66568,
        "meta_element_set_no": 999,
        "meta_rev_at_epoch": 468,
        "meta_bstar": -0.0021195054,
        "meta_mean_motion_dot": -0.00123039,
        "meta_mean_motion_ddot": 0,
        "tle_line1": "1 66568U 25268M   25346.83335648 -.00123039  00000+0 -21195-2 0  9993",
        "tle_line2": "2 66568  43.0001 120.6013 0001643 282.7103   0.2057 15.50644849  4689"
      },
      "geometry": {
        "type": "Point",
        "coordinates": [
          -156.7938736558719,
          42.95616642327647
        ]
      }
    },
    {
      "type": "Feature",
      "properties": {
        "norad_id": 66569,
        "name": "STARLINK-35835",
        "group": "last-30-days",
        "lat": 42.97919296226833,
        "lon": -154.14900259297107,
        "alt_km": 409.7380972315468,
        "timestamp": "2025-12-13T16:48:31.465267+00:00",
        "meta_object_name": "STARLINK-35835",
        "meta_object_id": "2025-268N",
        "meta_epoch": "2025-12-12T20:00:01.999872",
        "meta_mean_motion": 15.50617099,
        "meta_eccentricity": 0.00017115,
        "meta_inclination": 43.0001,
        "meta_ra_of_asc_node": 120.5962,
        "meta_arg_of_pericenter": 269.8708,
        "meta_mean_anomaly": 14.9869,
        "meta_ephemeris_type": 0,
        "meta_classification_type": "U",
        "meta_norad_cat_id": 66569,
        "meta_element_set_no": 999,
        "meta_rev_at_epoch": 468,
        "meta_bstar": -0.0015764404,
        "meta_mean_motion_dot": -0.00091873,
        "meta_mean_motion_ddot": 0,
        "tle_line1": "1 66569U 25268N   25346.83335648 -.00091873  00000+0 -15764-2 0  9999",
        "tle_line2": "2 66569  43.0001 120.5962 0001711 269.8708  14.9869 15.50617099  4685"
      },
      "geometry": {
        "type": "Point",
        "coordinates": [
          -154.14900259297107,
          42.97919296226833
        ]
      }
    }
  ]
}